*******************************************************************************
Ephemeris / WWW_USER Fri Mar  7 09:56:45 2025 Pasadena, USA      / Horizons    
*******************************************************************************
Target body name: 358P/PANSTARRS                  {source: JPL#33}
Center body name: Earth (399)                     {source: DE441}
Center-site name: Mauna Kea
*******************************************************************************
Start time      : A.D. 2019-Jan-08 04:08:00.0000 UT      
Stop  time      : A.D. 2019-Jan-08 16:48:00.0000 UT      
Step-size       : 1 minutes
*******************************************************************************
Target pole/equ : undefined
Target radii    : undefined                                                    
Center geodetic : 204.5278, 19.8260847, 4.21024   {E-lon(deg),Lat(deg),Alt(km)}
Center cylindric: 204.5278, 6006.35451, 2151.0229 {E-lon(deg),Dxy(km),Dz(km)}
Center pole/equ : ITRF93                          {East-longitude positive}
Center radii    : 6378.137, 6378.137, 6356.752 km {Equator_a, b, pole_c}       
Target primary  : Sun
Vis. interferer : MOON (R_eq= 1737.400) km        {source: DE441}
Rel. light bend : Sun                             {source: DE441}
Rel. lght bnd GM: 1.3271E+11 km^3/s^2                                          
Small-body perts: Yes                             {source: SB441-N16}
Atmos refraction: NO (AIRLESS)
RA format       : HMS
Time format     : CAL 
Calendar mode   : Mixed Julian/Gregorian
RTS-only print  : NO       
EOP file        : eop.250306.p250602                                           
EOP coverage    : DATA-BASED 1962-JAN-20 TO 2025-MAR-06. PREDICTS-> 2025-JUN-01
Units conversion: 1 au= 149597870.700 km, c= 299792.458 km/s, 1 day= 86400.0 s 
Table cut-offs 1: Elevation (-90.0deg=NO ),Airmass (>38.000=NO), Daylight (YES)
Table cut-offs 2: Solar elongation (  0.0,180.0=NO ),Local Hour Angle( 0.0=NO )
Table cut-offs 3: RA/DEC angular rate (     0.0=NO )                           
*******************************************************************************
Initial IAU76/J2000 heliocentric ecliptic osculating elements (au, days, deg.):
  EPOCH=  2459793.5 ! 2022-Aug-02.0000000 (TDB)    RMSW= n.a.                  
   EC= .2388922136090974   QR= 2.394903345037887   TP= 2460259.6862889272      
   OM= 85.70246509974154   W= 299.7728624007243    IN= 11.06025031481611       
  Equivalent ICRF heliocentric cartesian coordinates (au, au/d):
   X= 3.243054425204740E-01  Y=-2.897679241187805E+00  Z=-1.376383147061824E+00
  VX= 8.746409534656921E-03 VY= 3.598394346577952E-03 VZ=-2.469697424538527E-04
Comet physical (GM= km^3/s^2; RAD= km):                                        
   GM= n.a.                RAD= n.a.                                           
   M1=  7.8      M2=  17.2     k1=  30.    k2=  5.      PHCOF=  .030           
Comet non-gravitational force model (AMRAT=m^2/kg;A1-A3=au/d^2;DT=days;R0=au): 
   AMRAT=  0.                                      DT=  0.                     
   A1= 0.                  A2= -2.303385920823E-10 A3= 0.                      
 Standard model:                                                               
   ALN=  .1112620426   NK=  4.6142   NM=  2.15     NN=  5.093    R0=  2.808    
*******************************************************************************
 Date__(UT)__HR:MN     R.A._________(ICRF)_________DEC
******************************************************
$$SOE
 2019-Jan-08 04:08 Cm  06 10 40.660902 +26 57 14.25118
 2019-Jan-08 04:09 Cm  06 10 40.623857 +26 57 14.40688
 2019-Jan-08 04:10 Cm  06 10 40.586806 +26 57 14.56257
 2019-Jan-08 04:11 Cm  06 10 40.549749 +26 57 14.71826
 2019-Jan-08 04:12 Cm  06 10 40.512686 +26 57 14.87393
 2019-Jan-08 04:13 Cm  06 10 40.475617 +26 57 15.02959
 2019-Jan-08 04:14 Cm  06 10 40.438542 +26 57 15.18524
 2019-Jan-08 04:15 Cm  06 10 40.401461 +26 57 15.34088
 2019-Jan-08 04:16 Cm  06 10 40.364374 +26 57 15.49651
 2019-Jan-08 04:17 Cm  06 10 40.327281 +26 57 15.65213
 2019-Jan-08 04:18 Cm  06 10 40.290183 +26 57 15.80774
 2019-Jan-08 04:19 Cm  06 10 40.253078 +26 57 15.96333
 2019-Jan-08 04:20 Cm  06 10 40.215967 +26 57 16.11891
 2019-Jan-08 04:21 Cm  06 10 40.178851 +26 57 16.27448
 2019-Jan-08 04:22 Cm  06 10 40.141729 +26 57 16.43004
 2019-Jan-08 04:23 Nm  06 10 40.104600 +26 57 16.58559
 2019-Jan-08 04:24 Nm  06 10 40.067466 +26 57 16.74112
 2019-Jan-08 04:25 Nm  06 10 40.030326 +26 57 16.89664
 2019-Jan-08 04:26 Nm  06 10 39.993180 +26 57 17.05215
 2019-Jan-08 04:27 Nm  06 10 39.956029 +26 57 17.20764
 2019-Jan-08 04:28 Nm  06 10 39.918871 +26 57 17.36312
 2019-Jan-08 04:29 Nm  06 10 39.881707 +26 57 17.51859
 2019-Jan-08 04:30 Nm  06 10 39.844538 +26 57 17.67404
 2019-Jan-08 04:31 Nm  06 10 39.807363 +26 57 17.82948
 2019-Jan-08 04:32 Nm  06 10 39.770182 +26 57 17.98491
 2019-Jan-08 04:33 Nm  06 10 39.732995 +26 57 18.14032
 2019-Jan-08 04:34 Nm  06 10 39.695803 +26 57 18.29572
 2019-Jan-08 04:35 Nm  06 10 39.658604 +26 57 18.45110
 2019-Jan-08 04:36 Nm  06 10 39.621400 +26 57 18.60647
 2019-Jan-08 04:37 Nm  06 10 39.584190 +26 57 18.76182
 2019-Jan-08 04:38 Nm  06 10 39.546975 +26 57 18.91716
 2019-Jan-08 04:39 Nm  06 10 39.509753 +26 57 19.07249
 2019-Jan-08 04:40 Nm  06 10 39.472526 +26 57 19.22780
 2019-Jan-08 04:41 Nm  06 10 39.435293 +26 57 19.38309
 2019-Jan-08 04:42 Nm  06 10 39.398054 +26 57 19.53837
 2019-Jan-08 04:43 Nm  06 10 39.360810 +26 57 19.69363
 2019-Jan-08 04:44 Nm  06 10 39.323560 +26 57 19.84888
 2019-Jan-08 04:45 Nm  06 10 39.286304 +26 57 20.00411
 2019-Jan-08 04:46 Nm  06 10 39.249043 +26 57 20.15932
 2019-Jan-08 04:47 Nm  06 10 39.211775 +26 57 20.31452
 2019-Jan-08 04:48 Nm  06 10 39.174502 +26 57 20.46970
 2019-Jan-08 04:49 Nm  06 10 39.137224 +26 57 20.62486
 2019-Jan-08 04:50 Am  06 10 39.099940 +26 57 20.78001
 2019-Jan-08 04:51 Am  06 10 39.062650 +26 57 20.93514
 2019-Jan-08 04:52 Am  06 10 39.025354 +26 57 21.09025
 2019-Jan-08 04:53 Am  06 10 38.988053 +26 57 21.24535
 2019-Jan-08 04:54 Am  06 10 38.950747 +26 57 21.40043
 2019-Jan-08 04:55 Am  06 10 38.913434 +26 57 21.55549
 2019-Jan-08 04:56 Am  06 10 38.876116 +26 57 21.71053
 2019-Jan-08 04:57 Am  06 10 38.838793 +26 57 21.86556
 2019-Jan-08 04:58 Am  06 10 38.801464 +26 57 22.02056
 2019-Jan-08 04:59 Am  06 10 38.764129 +26 57 22.17555
 2019-Jan-08 05:00 Am  06 10 38.726789 +26 57 22.33052
 2019-Jan-08 05:01 Am  06 10 38.689444 +26 57 22.48547
 2019-Jan-08 05:02 Am  06 10 38.652092 +26 57 22.64040
 2019-Jan-08 05:03 Am  06 10 38.614736 +26 57 22.79532
 2019-Jan-08 05:04 Am  06 10 38.577374 +26 57 22.95021
 2019-Jan-08 05:05 Am  06 10 38.540006 +26 57 23.10509
 2019-Jan-08 05:06 Am  06 10 38.502633 +26 57 23.25994
 2019-Jan-08 05:07 Am  06 10 38.465254 +26 57 23.41478
 2019-Jan-08 05:08 Am  06 10 38.427870 +26 57 23.56959
 2019-Jan-08 05:09 Am  06 10 38.390481 +26 57 23.72439
 2019-Jan-08 05:10 Am  06 10 38.353086 +26 57 23.87917
 2019-Jan-08 05:11 Am  06 10 38.315686 +26 57 24.03392
 2019-Jan-08 05:12 Am  06 10 38.278280 +26 57 24.18866
 2019-Jan-08 05:13 Am  06 10 38.240869 +26 57 24.34337
 2019-Jan-08 05:14 Am  06 10 38.203452 +26 57 24.49807
 2019-Jan-08 05:15 Am  06 10 38.166031 +26 57 24.65274
 2019-Jan-08 05:16 Am  06 10 38.128603 +26 57 24.80740
 2019-Jan-08 05:17  m  06 10 38.091171 +26 57 24.96203
 2019-Jan-08 05:18  m  06 10 38.053733 +26 57 25.11664
 2019-Jan-08 05:19  m  06 10 38.016290 +26 57 25.27123
 2019-Jan-08 05:20  m  06 10 37.978842 +26 57 25.42579
 2019-Jan-08 05:21  m  06 10 37.941388 +26 57 25.58034
 2019-Jan-08 05:22  m  06 10 37.903929 +26 57 25.73486
 2019-Jan-08 05:23  m  06 10 37.866465 +26 57 25.88937
 2019-Jan-08 05:24  m  06 10 37.828996 +26 57 26.04385
 2019-Jan-08 05:25  m  06 10 37.791521 +26 57 26.19830
 2019-Jan-08 05:26  m  06 10 37.754041 +26 57 26.35274
 2019-Jan-08 05:27  m  06 10 37.716557 +26 57 26.50715
 2019-Jan-08 05:28  m  06 10 37.679066 +26 57 26.66154
 2019-Jan-08 05:29  m  06 10 37.641571 +26 57 26.81590
 2019-Jan-08 05:30  m  06 10 37.604071 +26 57 26.97025
 2019-Jan-08 05:31  m  06 10 37.566565 +26 57 27.12457
 2019-Jan-08 05:32  m  06 10 37.529054 +26 57 27.27886
 2019-Jan-08 05:33  m  06 10 37.491539 +26 57 27.43314
 2019-Jan-08 05:34  m  06 10 37.454018 +26 57 27.58739
 2019-Jan-08 05:35  m  06 10 37.416492 +26 57 27.74161
 2019-Jan-08 05:36  m  06 10 37.378961 +26 57 27.89581
 2019-Jan-08 05:37  m  06 10 37.341425 +26 57 28.04999
 2019-Jan-08 05:38  m  06 10 37.303884 +26 57 28.20414
 2019-Jan-08 05:39  m  06 10 37.266338 +26 57 28.35827
 2019-Jan-08 05:40  m  06 10 37.228787 +26 57 28.51238
 2019-Jan-08 05:41  m  06 10 37.191231 +26 57 28.66646
 2019-Jan-08 05:42  m  06 10 37.153670 +26 57 28.82051
 2019-Jan-08 05:43  m  06 10 37.116104 +26 57 28.97454
 2019-Jan-08 05:44  m  06 10 37.078533 +26 57 29.12855
 2019-Jan-08 05:45  m  06 10 37.040957 +26 57 29.28253
 2019-Jan-08 05:46  m  06 10 37.003377 +26 57 29.43648
 2019-Jan-08 05:47  m  06 10 36.965791 +26 57 29.59041
 2019-Jan-08 05:48  m  06 10 36.928201 +26 57 29.74431
 2019-Jan-08 05:49  m  06 10 36.890606 +26 57 29.89819
 2019-Jan-08 05:50     06 10 36.853006 +26 57 30.05204
 2019-Jan-08 05:51     06 10 36.815401 +26 57 30.20586
 2019-Jan-08 05:52     06 10 36.777792 +26 57 30.35966
 2019-Jan-08 05:53     06 10 36.740177 +26 57 30.51343
 2019-Jan-08 05:54     06 10 36.702558 +26 57 30.66718
 2019-Jan-08 05:55     06 10 36.664934 +26 57 30.82090
 2019-Jan-08 05:56     06 10 36.627306 +26 57 30.97459
 2019-Jan-08 05:57     06 10 36.589672 +26 57 31.12826
 2019-Jan-08 05:58     06 10 36.552035 +26 57 31.28190
 2019-Jan-08 05:59     06 10 36.514392 +26 57 31.43551
 2019-Jan-08 06:00     06 10 36.476745 +26 57 31.58909
 2019-Jan-08 06:01     06 10 36.439093 +26 57 31.74265
 2019-Jan-08 06:02     06 10 36.401436 +26 57 31.89618
 2019-Jan-08 06:03     06 10 36.363775 +26 57 32.04968
 2019-Jan-08 06:04     06 10 36.326110 +26 57 32.20315
